#aV2023  1 19  0  0  0.00000000     288 DD+AD WGS84 FIT  NGA
## 2245 345600.00000000   300.00000000 59963 0.0000000000000
+   31     1  2  3  4  5  6  7  8  9 10 11 12 13 14 15 16 17
+         18 19 20 21 22 23 24 25 26 27 29 30 31 32  0  0  0
+          0  0  0  0  0  0  0  0  0  0  0  0  0  0  0  0  0
+          0  0  0  0  0  0  0  0  0  0  0  0  0  0  0  0  0
+          0  0  0  0  0  0  0  0  0  0  0  0  0  0  0  0  0
++         2  2  2  2  2  2  2  2  2  2  2  2  2  2  2  2  2
++         2  2  2  2  2  2  2  2  2  2  2  2  2  2  0  0  0
++         0  0  0  0  0  0  0  0  0  0  0  0  0  0  0  0  0
++         0  0  0  0  0  0  0  0  0  0  0  0  0  0  0  0  0
++         0  0  0  0  0  0  0  0  0  0  0  0  0  0  0  0  0
%c cc cc ccc ccc cccc cccc cccc cccc ccccc ccccc ccccc ccccc
%c cc cc ccc ccc cccc cccc cccc cccc ccccc ccccc ccccc ccccc
%f  0.0000000  0.000000000  0.00000000000  0.000000000000000
%f  0.0000000  0.000000000  0.00000000000  0.000000000000000
%i    0    0    0    0      0      0      0      0         0
%i    0    0    0    0      0      0      0      0         0
/*      NGA, ST. LOUIS,MO.                                  
/*   EPHEMERIS COMPUTED FROM 2 DAYS OF DATA                 
/*   EPOCHA v8 SMOOTHER                                     
/*   G2139 IERS2010 SATIGS SATAPC                           
*  2023  1 19 21  5  0.00000000
P  1  13830.987418 -22357.260908  -2350.996103    222.398808                    
V  1   3292.358906   -888.485793  32420.446497     -0.046573                    
P  2  -9819.396960  24401.701532   5092.900673   -626.293935                    
V  2  -4779.467754   3758.769921 -30882.819560      0.023203                    
P  3  11877.100744 -12740.595180 -20140.520420   -371.130470                    
V  3  25149.090866   2838.550267  13220.391932      0.025364                    
P  4   3721.236520 -20292.838863 -16660.974371    -45.341800                    
V  4  10259.713832  18649.170516 -20523.792945      0.077391                    
P  5 -24067.952981   5914.730577   9538.892972   -112.619433                    
V  5 -12238.531474  -2745.678194 -28553.338054     -0.014625                    
P  6 -12907.850974  -6917.145665 -22090.706778    561.020175                    
V  6  15924.617607 -23198.731101  -1949.103977      0.057542                    
P  7   2349.952404 -22037.750994  14693.362091    256.029829                    
V  7  12346.136524 -13544.176502 -23447.706486     -0.063696                    
P  8  11748.315101 -10032.784529  21515.917624   -104.378214                    
V  8  13083.152529  24181.089774   4500.754905     -0.018310                    
P  9  -6272.117880 -24571.949437  -7890.552547   -233.560101                    
V  9   7009.406816   7578.213823 -29505.210823      0.066438                    
P 10  19165.010277  11406.934496  14831.293978    -21.092713                    
V 10 -18432.554937    134.226006  23685.869272     -0.015832                    
P 11 -19357.462583   5758.692548 -17221.982090    -82.675835                    
V 11  11885.974504 -18463.412609 -19553.402755     -0.090555                    
P 12 -14023.561873  11616.745737 -19575.724129   -330.084841                    
V 12 -23857.982907  -4663.131197  14631.936654     -0.045600                    
P 13 -15067.144935   1672.177365  21646.998955    462.151764                    
V 13  -8380.952610 -26574.230093  -3564.821734      0.063520                    
P 14 -16578.109947 -13300.149382  16010.304091    -45.958038                    
V 14  20402.011569    140.683402  21127.687084      0.078573                    
P 15 -10617.097471  11890.761788  20767.430120      6.059743                    
V 15 -15876.146138 -22540.817936   4961.613949      0.032777                    
P 16  25824.771587   -571.812011   6863.571260   -523.323669                    
V 16   8517.478095   3604.989028 -29981.489046      0.012170                    
P 17 -12763.792307 -22638.726776  -4788.479861    694.472544                    
V 17   -281.725212  -7061.548361  31381.476947      0.025994                    
P 18   -580.896959  20554.364436  16734.938760   -105.759820                    
V 18 -13639.551416  16406.453920 -20765.395167     -0.153465                    
P 19 -16261.816608 -14980.964211 -15139.066799    266.333496                    
V 19  -4902.783834 -18088.063540  23263.329907      0.050669                    
P 20 -26335.989400    806.367546  -2205.033886    456.022138                    
V 20   2534.912132  -3684.099360 -31413.378890     -0.023932                    
P 21  16831.531242 -18606.659712   7933.071905    153.553973                    
V 21  -1906.919444   9826.710196  30073.924919      0.002257                    
P 22  16846.374715  11693.588238 -16541.365106    409.391493                    
V 22   6128.955469  20954.136701  20357.461553      0.079878                    
P 23   7852.083502  14561.782089  20811.865320      3.002848                    
V 23 -26359.293852   -469.039320  10134.310947      0.011969                    
P 24 -14413.217076  21847.056455   2525.847150    -37.216900                    
V 24  -1730.602842  -5188.066767  31189.224098     -0.166016                    
P 25  -3286.927201  15256.963190 -21780.146617    412.764241                    
V 25 -26897.476715  -2081.391660   2918.613438      0.033249                    
P 26  25614.858059   4771.642029  -6120.846950    240.540843                    
V 26  -7621.766040   3103.775772 -29667.403563      0.005317                    
P 27  16696.916520   2335.324218  20396.143419    122.975185                    
V 27  10842.616675  23954.032611 -11087.070604     -0.093470                    
P 29   2173.459594  24382.364632 -10253.438970   -581.368830                    
V 29  -6647.077323 -11306.259101 -28493.472272     -0.022377                    
P 30  -8308.857620 -14643.810829  20581.436973   -532.827585                    
V 30  15815.195316 -20770.103996  -8688.840058      0.009949                    
P 31  14904.599557   5387.761819 -21527.867455   -206.806906                    
V 31 -15426.515814  22057.604381  -4748.169518     -0.011212                    
P 32  15752.276681  20134.095987  -7423.334503   -369.386931                    
V 32   1951.830038   9733.073787  29694.571530     -0.122945                    
EOF
